{"spkid": "50666806", "covariance": {"epoch": "2458413.5", "labels": ["e", "q", "tp", "node", "peri", "i"], "data": [["3.046937478591615E-14", "-2.171002296781974E-14", "3.147394541440282E-13", "2.631085924096881E-12", "-4.978634244850664E-12", "-7.083401596456711E-13"], ["-2.171002296781974E-14", "1.559547733975736E-14", "2.928319769895835E-13", "-1.803431798053925E-12", "3.488565701505317E-12", "1.629990939424471E-13"], ["3.147394541440282E-13", "2.928319769895835E-13", "5.806648370879795E-9", "1.421587501883678E-9", "2.766354105552631E-9", "-1.458052733678698E-9"], ["2.631085924096881E-12", "-1.803431798053925E-12", "1.421587501883678E-9", "1.814140300125222E-9", "-1.735860551296783E-10", "2.016783172419782E-11"], ["-4.978634244850664E-12", "3.488565701505317E-12", "2.766354105552631E-9", "-1.735860551296783E-10", "3.822586894384885E-9", "1.356983137451417E-10"], ["-7.083401596456711E-13", "1.629990939424471E-13", "-1.458052733678698E-9", "2.016783172419782E-11", "1.356983137451417E-10", "1.701071861761193E-9"]], "elements": [{"name": "e", "sigma": 1.74554790211888e-07, "value": ".2711108763936764", "title": "eccentricity", "units": null, "label": "e"}, {"sigma": 1.24881853524671e-07, "name": "q", "units": "au", "value": ".5482102075379086", "title": "perihelion distance", "label": "q"}, {"label": "tp", "units": "TDB", "title": "time of perihelion passage", "value": "2458519.058488569171", "name": "tp", "sigma": 7.62013672507245e-05}, {"units": "deg", "title": "longitude of the ascending node", "value": "358.654846757736", "sigma": 4.25927259062533e-05, "name": "om", "label": "node"}, {"title": "argument of perihelion", "value": "347.4641261811706", "units": "deg", "sigma": 6.18270725037575e-05, "name": "w", "label": "peri"}, {"label": "i", "name": "i", "sigma": 4.12440524410635e-05, "title": "inclination", "value": "19.19745112617345", "units": "deg"}]}, "elements": [{"label": "e", "name": "e", "sigma": "1.7477E-7", "units": null, "title": "eccentricity", "value": ".2711133288132588"}, {"label": "a", "name": "a", "sigma": "1.7767E-8", "value": ".7521634313711745", "title": "semi-major axis", "units": "au"}, {"label": "q", "title": "perihelion distance", "value": ".5482418996805323", "units": "au", "sigma": "1.2512E-7", "name": "q"}, {"label": "i", "sigma": "4.1244E-5", "name": "i", "units": "deg", "value": "19.19586047636059", "title": "inclination; angle with respect to x-y ecliptic plane"}, {"label": "node", "sigma": "4.26E-5", "name": "om", "value": "358.6210953290675", "title": "longitude of the ascending node", "units": "deg"}, {"units": "deg", "title": "argument of perihelion", "value": "347.4580361777774", "name": "w", "sigma": "6.1803E-5", "label": "peri"}, {"name": "ma", "sigma": ".00022819", "title": "mean anomaly", "value": "91.64754689012236", "units": "deg", "label": "M"}, {"label": "tp", "value": "2461139.842418062365", "title": "time of perihelion passage", "units": "TDB", "name": "tp", "sigma": ".00014909"}, {"label": "period", "name": "per", "sigma": "8.4424E-6", "units": "d", "title": "sidereal orbital period", "value": "238.2685651556952"}, {"label": "n", "units": "deg/d", "value": "1.510900104530197", "title": "mean motion", "name": "n", "sigma": "5.3535E-8"}, {"units": "au", "title": "aphelion distance", "value": ".9560849630618167", "name": "ad", "sigma": "2.2584E-8", "label": "Q"}], "epoch": "2461200.5"}